{"type": "FeatureCollection", "features": [ {"type": "Feature", "properties": {"norad_id": 30435, "name": "FENGYUN 1C DEB", "group": "fengyun-1c-debris", "lat": 37.719347352323695, "lon": 162.16372202696053, "alt_km": 837.2150277180435, "timestamp": "2025-12-14T22:38:41.034328+00:00", "meta": {"OBJECT_NAME": "FENGYUN 1C DEB", "OBJECT_ID": "1999-025AEW", "EPOCH": "2025-12-14T05:10:45.897600", "MEAN_MOTION": 13.79626147, "ECCENTRICITY": 0.02077591, "INCLINATION": 99.0171, "RA_OF_ASC_NODE": 334.4158, "ARG_OF_PERICENTER": 107.9866, "MEAN_ANOMALY": 19.8809, "EPHEMERIS_TYPE": 0, "CLASSIFICATION_TYPE": "U", "NORAD_CAT_ID": 30435, "ELEMENT_SET_NO": 999, "REV_AT_EPOCH": 94180, "BSTAR": 0.0018458582, "MEAN_MOTION_DOT": 2.2e-05, "MEAN_MOTION_DDOT": 0}, "tle": {"line1": "1 30435U 99025AEW 25348.21580900  .00002200  00000+0  18459-2 0  9999", "line2": "2 30435  99.0171 334.4158 0207759 107.9866  19.8809 13.79626147941802"}}, "geometry": {"type": "Point", "coordinates": [162.16372202696053, 37.719347352323695]}}, {"type": "Feature", "properties": {"norad_id": 30436, "name": "FENGYUN 1C DEB", "group": "fengyun-1c-debris", "lat": 10.419050356947492, "lon": 64.40859346139119, "alt_km": 766.8234197858346, "timestamp": "2025-12-14T22:38:41.034339+00:00", "meta": {"OBJECT_NAME": "FENGYUN 1C DEB", "OBJECT_ID": "1999-025AEX", "EPOCH": "2025-12-13T15:45:38.575008", "MEAN_MOTION": 14.22299835, "ECCENTRICITY": 0.00974038, "INCLINATION": 98.4262, "RA_OF_ASC_NODE": 241.6165, "ARG_OF_PERICENTER": 130.846, "MEAN_ANOMALY": 292.5275, "EPHEMERIS_TYPE": 0, "CLASSIFICATION_TYPE": "U", "NORAD_CAT_ID": 30436, "ELEMENT_SET_NO": 999, "REV_AT_EPOCH": 96450, "BSTAR": 0.0024399343, "MEAN_MOTION_DOT": 5.654e-05, "MEAN_MOTION_DDOT": 0}, "tle": {"line1": "1 30436U 99025AEX 25347.65669647  .00005654  00000+0  24399-2 0  9999", "line2": "2 30436  98.4262 241.6165 0097403 130.8460 292.5275 14.22299835964500"}}, "geometry": {"type": "Point", "coordinates": [64.40859346139119, 10.419050356947492]}}, {"type": "Feature", "properties": {"norad_id": 30437, "name": "FENGYUN 1C DEB", "group": "fengyun-1c-debris", "lat": 53.74202128411492, "lon": -3.3859935086198787, "alt_km": 579.5919574319332, "timestamp": "2025-12-14T22:38:41.034349+00:00", "meta": {"OBJECT_NAME": "FENGYUN 1C DEB", "OBJECT_ID": "1999-025AEY", "EPOCH": "2025-12-14T07:56:20.929920", "MEAN_MOTION": 14.88136492, "ECCENTRICITY": 0.00357539, "INCLINATION": 98.9223, "RA_OF_ASC_NODE": 8.2935, "ARG_OF_PERICENTER": 97.306, "MEAN_ANOMALY": 277.0725, "EPHEMERIS_TYPE": 0, "CLASSIFICATION_TYPE": "U", "NORAD_CAT_ID": 30437, "ELEMENT_SET_NO": 999, "REV_AT_EPOCH": 99211, "BSTAR": 0.0025316654, "MEAN_MOTION_DOT": 0.00023594, "MEAN_MOTION_DDOT": 0}, "tle": {"line1": "1 30437U 99025AEY 25348.33079780  .00023594  00000+0  25317-2 0  9993", "line2": "2 30437  98.9223   8.2935 0035753  97.3060 277.0725 14.88136492992115"}}, "geometry": {"type": "Point", "coordinates": [-3.3859935086198787, 53.74202128411492]}}, {"type": "Feature", "properties": {"norad_id": 30438, "name": "FENGYUN 1C DEB", "group": "fengyun-1c-debris", "lat": -6.496646155401942, "lon": -175.1554713223532, "alt_km": 827.0319020281095, "timestamp": "2025-12-14T22:38:41.034359+00:00", "meta": {"OBJECT_NAME": "FENGYUN 1C DEB", "OBJECT_ID": "1999-025AEZ", "EPOCH": "2025-12-13T12:58:40.522656", "MEAN_MOTION": 13.92102764, "ECCENTRICITY": 0.01347489, "INCLINATION": 98.7504, "RA_OF_ASC_NODE": 4.5249, "ARG_OF_PERICENTER": 184.6119, "MEAN_ANOMALY": 175.381, "EPHEMERIS_TYPE": 0, "CLASSIFICATION_TYPE": "U", "NORAD_CAT_ID": 30438, "ELEMENT_SET_NO": 999, "REV_AT_EPOCH": 95317, "BSTAR": 0.0017802424, "MEAN_MOTION_DOT": 2.412e-05, "MEAN_MOTION_DDOT": 0}, "tle": {"line1": "1 30438U 99025AEZ 25347.54074679  .00002412  00000+0  17802-2 0  9994", "line2": "2 30438  98.7504   4.5249 0134748 184.6119 175.3810 13.92102764953179"}}, "geometry": {"type": "Point", "coordinates": [-175.1554713223532, -6.496646155401942]}}, {"type": "Feature", "properties": {"norad_id": 30439, "name": "FENGYUN 1C DEB", "group": "fengyun-1c-debris", "lat": -65.2146197581976, "lon": 161.1099033639341, "alt_km": 867.4160657056746, "timestamp": "2025-12-14T22:38:41.034369+00:00", "meta": {"OBJECT_NAME": "FENGYUN 1C DEB", "OBJECT_ID": "1999-025AFA", "EPOCH": "2025-12-13T23:38:11.826240", "MEAN_MOTION": 14.08842357, "ECCENTRICITY": 0.00387098, "INCLINATION": 98.7502, "RA_OF_ASC_NODE": 359.6634, "ARG_OF_PERICENTER": 333.2436, "MEAN_ANOMALY": 94.3508, "EPHEMERIS_TYPE": 0, "CLASSIFICATION_TYPE": "U", "NORAD_CAT_ID": 30439, "ELEMENT_SET_NO": 999, "REV_AT_EPOCH": 96809, "BSTAR": 0.00066850722, "MEAN_MOTION_DOT": 1.119e-05, "MEAN_MOTION_DDOT": 0}, "tle": {"line1": "1 30439U 99025AFA 25347.98485910  .00001119  00000+0  66851-3 0  9999", "line2": "2 30439  98.7502 359.6634 0038709 333.2436  94.3508 14.08842357968092"}}, "geometry": {"type": "Point", "coordinates": [161.1099033639341, -65.2146197581976]}}, {"type": "Feature", "properties": {"norad_id": 30441, "name": "FENGYUN 1C DEB", "group": "fengyun-1c-debris", "lat": 10.658816039965664, "lon": 76.48953970860435, "alt_km": 1037.2500308281778, "timestamp": "2025-12-14T22:38:41.034379+00:00", "meta": {"OBJECT_NAME": "FENGYUN 1C DEB", "OBJECT_ID": "1999-025AFC", "EPOCH": "2025-12-14T05:09:42.234624", "MEAN_MOTION": 13.77680751, "ECCENTRICITY": 0.01838703, "INCLINATION": 99.1348, "RA_OF_ASC_NODE": 77.524, "ARG_OF_PERICENTER": 253.763, "MEAN_ANOMALY": 104.3223, "EPHEMERIS_TYPE": 0, "CLASSIFICATION_TYPE": "U", "NORAD_CAT_ID": 30441, "ELEMENT_SET_NO": 999, "REV_AT_EPOCH": 94890, "BSTAR": 0.00075552645, "MEAN_MOTION_DOT": 8.11e-06, "MEAN_MOTION_DDOT": 0}, "tle": {"line1": "1 30441U 99025AFC 25348.21507216  .00000811  00000+0  75553-3 0  9990", "line2": "2 30441  99.1348  77.5240 0183870 253.7630 104.3223 13.77680751948906"}}, "geometry": {"type": "Point", "coordinates": [76.48953970860435, 10.658816039965664]}}, {"type": "Feature", "properties": {"norad_id": 30442, "name": "FENGYUN 1C DEB", "group": "fengyun-1c-debris", "lat": 75.56053358391266, "lon": -60.110091450984136, "alt_km": 828.5065252748718, "timestamp": "2025-12-14T22:38:41.034389+00:00", "meta": {"OBJECT_NAME": "FENGYUN 1C DEB", "OBJECT_ID": "1999-025AFD", "EPOCH": "2025-12-14T05:21:36.475776", "MEAN_MOTION": 14.28631974, "ECCENTRICITY": 0.00549472, "INCLINATION": 98.8662, "RA_OF_ASC_NODE": 81.8428, "ARG_OF_PERICENTER": 283.1241, "MEAN_ANOMALY": 76.3812, "EPHEMERIS_TYPE": 0, "CLASSIFICATION_TYPE": "U", "NORAD_CAT_ID": 30442, "ELEMENT_SET_NO": 999, "REV_AT_EPOCH": 97183, "BSTAR": 0.0023299932, "MEAN_MOTION_DOT": 5.906e-05, "MEAN_MOTION_DDOT": 0}, "tle": {"line1": "1 30442U 99025AFD 25348.22333884  .00005906  00000+0  23300-2 0  9992", "line2": "2 30442  98.8662  81.8428 0054947 283.1241  76.3812 14.28631974971835"}}, "geometry": {"type": "Point", "coordinates": [-60.110091450984136, 75.56053358391266]}}, {"type": "Feature", "properties": {"norad_id": 30443, "name": "FENGYUN 1C DEB", "group": "fengyun-1c-debris", "lat": -28.190486550094498, "lon": -59.0905266095557, "alt_km": 755.0101093551248, "timestamp": "2025-12-14T22:38:41.034399+00:00", "meta": {"OBJECT_NAME": "FENGYUN 1C DEB", "OBJECT_ID": "1999-025AFE", "EPOCH": "2025-12-14T07:44:06.201600", "MEAN_MOTION": 14.36826748, "ECCENTRICITY": 0.00276238, "INCLINATION": 98.8474, "RA_OF_ASC_NODE": 295.4825, "ARG_OF_PERICENTER": 334.5051, "MEAN_ANOMALY": 25.477, "EPHEMERIS_TYPE": 0, "CLASSIFICATION_TYPE": "U", "NORAD_CAT_ID": 30443, "ELEMENT_SET_NO": 999, "REV_AT_EPOCH": 97456, "BSTAR": 0.0026107015, "MEAN_MOTION_DOT": 7.707e-05, "MEAN_MOTION_DDOT": 0}, "tle": {"line1": "1 30443U 99025AFE 25348.32229400  .00007707  00000+0  26107-2 0  9991", "line2": "2 30443  98.8474 295.4825 0027623 334.5051  25.4770 14.36826748974567"}}, "geometry": {"type": "Point", "coordinates": [-59.0905266095557, -28.190486550094498]}}, {"type": "Feature", "properties": {"norad_id": 30445, "name": "FENGYUN 1C DEB", "group": "fengyun-1c-debris", "lat": 47.94957527931931, "lon": -69.5289523872635, "alt_km": 665.0411089799145, "timestamp": "2025-12-14T22:38:41.034420+00:00", "meta": {"OBJECT_NAME": "FENGYUN 1C DEB", "OBJECT_ID": "1999-025AFG", "EPOCH": "2025-12-14T07:30:26.555904", "MEAN_MOTION": 14.4875869, "ECCENTRICITY": 0.01058605, "INCLINATION": 98.8345, "RA_OF_ASC_NODE": 299.7401, "ARG_OF_PERICENTER": 13.6245, "MEAN_ANOMALY": 346.7765, "EPHEMERIS_TYPE": 0, "CLASSIFICATION_TYPE": "U", "NORAD_CAT_ID": 30445, "ELEMENT_SET_NO": 999, "REV_AT_EPOCH": 99207, "BSTAR": 0.00093641811, "MEAN_MOTION_DOT": 3.741e-05, "MEAN_MOTION_DDOT": 0}, "tle": {"line1": "1 30445U 99025AFG 25348.31280736  .00003741  00000+0  93642-3 0  9994", "line2": "2 30445  98.8345 299.7401 0105860  13.6245 346.7765 14.48758690992075"}}, "geometry": {"type": "Point", "coordinates": [-69.5289523872635, 47.94957527931931]}}, {"type": "Feature", "properties": {"norad_id": 30446, "name": "FENGYUN 1C DEB", "group": "fengyun-1c-debris", "lat": 23.527731343133677, "lon": -104.74130208055197, "alt_km": 731.5199655431225, "timestamp": "2025-12-14T22:38:41.034432+00:00", "meta": {"OBJECT_NAME": "FENGYUN 1C DEB", "OBJECT_ID": "1999-025AFH", "EPOCH": "2025-12-14T05:18:24.150240", "MEAN_MOTION": 14.44750619, "ECCENTRICITY": 0.00347229, "INCLINATION": 98.6134, "RA_OF_ASC_NODE": 70.7428, "ARG_OF_PERICENTER": 93.8843, "MEAN_ANOMALY": 266.6318, "EPHEMERIS_TYPE": 0, "CLASSIFICATION_TYPE": "U", "NORAD_CAT_ID": 30446, "ELEMENT_SET_NO": 999, "REV_AT_EPOCH": 98198, "BSTAR": 0.0019513883, "MEAN_MOTION_DOT": 6.784e-05, "MEAN_MOTION_DDOT": 0}, "tle": {"line1": "1 30446U 99025AFH 25348.22111285  .00006784  00000+0  19514-2 0  9992", "line2": "2 30446  98.6134  70.7428 0034722  93.8843 266.6318 14.44750619981989"}}, "geometry": {"type": "Point", "coordinates": [-104.74130208055197, 23.527731343133677]}}]}